HYPERFIELD-1A           
1 60562U 24149CY  26068.76488211  .00008569  00000+0  30052-3 0  9998
2 60562  97.3842 149.5066 0003865 313.7844  46.3076 15.29681349 86836
STARLINK-32779          
1 63030U 25034B   26068.71141832  .00040771  00000+0  13815-2 0  9993
2 63030  53.1574 271.2683 0001004  65.7568 294.3537 15.30191894 58906
